BEIDOU-3S IGSO-1S       
1 40549U 15019A   26183.80025122 -.00000190  00000+0  00000+0 0  9997
2 40549  49.1798 295.2769 0076860 219.1125 144.2493  1.00680073 41232
NAVSTAR 74 (USA 262)    
1 40730U 15033A   26197.63833514 -.00000018  00000+0  00000+0 0  9992
2 40730  53.9601 265.8709 0115376  30.2943 330.4469  2.00554636 80582
BEIDOU-3S M2S           
1 40748U 15037A   26197.31868203 -.00000074  00000+0  00000+0 0  9995
2 40748  54.8432 301.0434 0009458 256.6613 103.2681  1.86231871 74662
BEIDOU-3S M1S           
1 40749U 15037B   26196.98562833 -.00000072  00000+0  00000+0 0  9996
2 40749  54.8399 301.0417 0002740  63.1715 296.8904  1.86254817 74669
GSAT0206 (GALILEO 10)   
1 40890U 15045B   26195.44010403  .00000065  00000+0  00000+0 0  9994
2 40890  54.9389 220.8513 0002159 328.3003  31.7529  1.70473502 67502
BEIDOU-3S IGSO-2S       
1 40938U 15053A   26197.14569112 -.00000096  00000+0  00000+0 0  9996
2 40938  49.1773 258.4358 0066263 193.1701 348.1230  1.00252633 39642
NAVSTAR 75 (USA 265)    
1 41019U 15062A   26197.19451016 -.00000074  00000+0  00000+0 0  9991
2 41019  56.9790  29.6945 0112905 230.8679 128.1635  2.00566952 78412
GSAT-15                 
1 41028U 15065A   26197.87976218 -.00000268  00000+0  00000+0 0  9990
2 41028   0.1136 263.9593 0003460 174.5124 266.4447  1.00272698 39091
GSAT0209 (GALILEO 12)   
1 41174U 15079A   26195.02182816 -.00000029  00000+0  00000+0 0  9990
2 41174  55.8424 100.5256 0004793 355.0835   4.9328  1.70473559 65231
GSAT0208 (GALILEO 11)   
1 41175U 15079B   26195.82875918 -.00000028  00000+0  00000+0 0  9990
2 41175  55.8401 100.5005 0004360 357.6027   2.4215  1.70473443 65667
IRNSS-1E                
1 41241U 16003A   26194.04240410 -.00000321  00000+0  00000+0 0  9994
2 41241  33.2887  59.3748 0018977 176.6620 181.8769  1.00278688 38338
NAVSTAR 76 (USA 266)    
1 41328U 16007A   26197.28580882 -.00000024  00000+0  00000+0 0  9993
2 41328  55.5417  88.3056 0096624 247.6025 111.4248  2.00575348 76424
COSMOS 2514 [GLONASS-M] 
1 41330U 16008A   26197.37931138 -.00000063  00000+0  00000+0 0  9994
2 41330  65.0024 312.0048 0012349 201.2981 158.6681  2.13102544 81242
BEIDOU-2 IGSO-6         
1 41434U 16021A   26177.11016981 -.00000145  00000+0  00000+0 0  9995
2 41434  60.2385  37.9495 0057558 231.0163 137.2672  1.00258926 37578
IRNSS-1G                
1 41469U 16027A   26197.58077653 -.00000347  00000+0  00000+0 0  9999
2 41469   5.2661  96.7944 0005963  11.7461 164.6245  1.00270128 37478
GSAT0211 (GALILEO 14)   
1 41549U 16030A   26195.36582065  .00000066  00000+0  00000+0 0  9991
2 41549  55.0898 220.9468 0003383 318.5013  41.5401  1.70473656 63136
GSAT0210 (GALILEO 13)   
1 41550U 16030B   26195.62306106  .00000064  00000+0  00000+0 0  9990
2 41550  55.0888 220.9379 0004719 246.1345 113.8809  1.70473871 63130
BEIDOU-2 G7             
1 41586U 16037A   26197.86209839 -.00000364  00000+0  00000+0 0  9993
2 41586   1.7916  69.5067 0005900   0.0042 286.0840  1.00272578  7189
EUTELSAT 117 WEST B     
1 41589U 16038B   26197.60313663 -.00000022  00000+0  00000+0 0  9991
2 41589   0.0096 205.9342 0000095 230.7902 317.8509  1.00269376 36956
GSAT0207 (GALILEO 15)   
1 41859U 16069A   26196.48823801 -.00000027  00000+0  00000+0 0  9995
2 41859  55.5148 100.3030 0004567 339.1852  20.8267  1.70473446 59888
GSAT0212 (GALILEO 16)   
1 41860U 16069B   26195.75505462 -.00000028  00000+0  00000+0 0  9997
2 41860  55.5126 100.3182 0004383  15.0007 345.0382  1.70473579 60128
GSAT0213 (GALILEO 17)   
1 41861U 16069C   26194.36243565 -.00000031  00000+0  00000+0 0  9991
2 41861  55.5134 100.3648 0004126 318.6741  41.3115  1.70474037 59967
GSAT0214 (GALILEO 18)   
1 41862U 16069D   26195.09530723 -.00000030  00000+0  00000+0 0  9997
2 41862  55.5122 100.3371 0003296 333.1197  26.8847  1.70473685 60108
SES-15                  
1 42709U 17026A   26197.60079662  .00000049  00000+0  00000+0 0  9990
2 42709   0.0270 328.2107 0000340 135.1509 278.1930  1.00268575  7727
QZS-2 (MICHIBIKI-2)     
1 42738U 17028A   26197.47358897 -.00000143  00000+0  00000+0 0  9995
2 42738  39.3848 242.7220 0757359 269.6144  94.9037  1.00276421  7921
QZS-3 (MICHIBIKI-3)     
1 42917U 17048A   26197.79406566 -.00000358  00000+0  00000+0 0  9996
2 42917   0.0630 213.0832 0002589 273.4997 220.9418  1.00271463 32553
COSMOS 2522 [GLONASS-M] 
1 42939U 17055A   26196.27842325  .00000055  00000+0  00000+0 0  9990
2 42939  64.0806 190.9281 0010934 240.7773 119.1159  2.13101758 68571
QZS-4 (MICHIBIKI-4)     
1 42965U 17062A   26197.72689171 -.00000353  00000+0  00000+0 0  9998
2 42965  40.0906 343.1084 0747247 268.6115  83.6926  1.00289937 32109
BEIDOU-3 M1             
1 43001U 17069A   26196.05478514 -.00000040  00000+0  00000+0 0  9992
2 43001  56.7163  62.1672 0009267 328.5335  31.4861  1.86230827 59122
BEIDOU-3 M2             
1 43002U 17069B   26195.99360895 -.00000040  00000+0  00000+0 0  9997
2 43002  56.7151  62.2055 0008281 358.4251   1.6473  1.86230602 59118
GSAT0215 (GALILEO 19)   
1 43055U 17079A   26196.17143387  .00000059  00000+0  00000+0 0  9991
2 43055  55.0676 220.7362 0003831 269.4103  90.6058  1.70474281 53460
